{
  "type": "FeatureCollection",
  "features": [
    {
      "type": "Feature",
      "properties": {
        "norad_id": 66906,
        "name": "1998-067XS",
        "group": "last-30-days",
        "lat": 46.41537381242221,
        "lon": -127.22540867230316,
        "alt_km": 408.7486468094494,
        "timestamp": "2025-12-19T10:49:59.924246+00:00",
        "meta_object_name": "1998-067XS",
        "meta_object_id": "1998-067XS",
        "meta_epoch": "2025-12-18T14:14:47.325984",
        "meta_mean_motion": 15.50877887,
        "meta_eccentricity": 0.00030668,
        "meta_inclination": 51.6311,
        "meta_ra_of_asc_node": 113.3804,
        "meta_arg_of_pericenter": 230.517,
        "meta_mean_anomaly": 129.5548,
        "meta_ephemeris_type": 0,
        "meta_classification_type": "U",
        "meta_norad_cat_id": 66906,
        "meta_element_set_no": 999,
        "meta_rev_at_epoch": 252,
        "meta_bstar": 0.00040765177,
        "meta_mean_motion_dot": 0.00023614,
        "meta_mean_motion_ddot": 0,
        "tle_line1": "1 66906U 98067XS  25352.59360331  .00023614  00000+0  40765-3 0  9994",
        "tle_line2": "2 66906  51.6311 113.3804 0003066 230.5170 129.5548 15.50877887  2528"
      },
      "geometry": {
        "type": "Point",
        "coordinates": [
          -127.22540867230316,
          46.41537381242221
        ]
      }
    },
    {
      "type": "Feature",
      "properties": {
        "norad_id": 66907,
        "name": "1998-067XT",
        "group": "last-30-days",
        "lat": 19.4315085712596,
        "lon": -87.19701917593615,
        "alt_km": 408.97430861747216,
        "timestamp": "2025-12-19T10:49:59.924256+00:00",
        "meta_object_name": "1998-067XT",
        "meta_object_id": "1998-067XT",
        "meta_epoch": "2025-12-18T14:04:54.777504",
        "meta_mean_motion": 15.52162368,
        "meta_eccentricity": 0.00039418,
        "meta_inclination": 51.6304,
        "meta_ra_of_asc_node": 113.334,
        "meta_arg_of_pericenter": 262.1658,
        "meta_mean_anomaly": 97.8884,
        "meta_ephemeris_type": 0,
        "meta_classification_type": "U",
        "meta_norad_cat_id": 66907,
        "meta_element_set_no": 999,
        "meta_rev_at_epoch": 252,
        "meta_bstar": 0.0008765902,
        "meta_mean_motion_dot": 0.0005395,
        "meta_mean_motion_ddot": 0,
        "tle_line1": "1 66907U 98067XT  25352.58674511  .00053950  00000+0  87659-3 0  9991",
        "tle_line2": "2 66907  51.6304 113.3340 0003941 262.1658  97.8884 15.52162368  2523"
      },
      "geometry": {
        "type": "Point",
        "coordinates": [
          -87.19701917593615,
          19.4315085712596
        ]
      }
    },
    {
      "type": "Feature",
      "properties": {
        "norad_id": 66908,
        "name": "1998-067XU",
        "group": "last-30-days",
        "lat": 16.340106360809326,
        "lon": -84.40653355557517,
        "alt_km": 408.9063596364531,
        "timestamp": "2025-12-19T10:49:59.924269+00:00",
        "meta_object_name": "1998-067XU",
        "meta_object_id": "1998-067XU",
        "meta_epoch": "2025-12-18T14:03:56.443680",
        "meta_mean_motion": 15.52259493,
        "meta_eccentricity": 0.00039838,
        "meta_inclination": 51.6306,
        "meta_ra_of_asc_node": 113.3296,
        "meta_arg_of_pericenter": 260.0245,
        "meta_mean_anomaly": 100.0295,
        "meta_ephemeris_type": 0,
        "meta_classification_type": "U",
        "meta_norad_cat_id": 66908,
        "meta_element_set_no": 999,
        "meta_rev_at_epoch": 252,
        "meta_bstar": 0.00087908108,
        "meta_mean_motion_dot": 0.00054298,
        "meta_mean_motion_ddot": 0,
        "tle_line1": "1 66908U 98067XU  25352.58606995  .00054298  00000+0  87908-3 0  9996",
        "tle_line2": "2 66908  51.6306 113.3296 0003983 260.0245 100.0295 15.52259493  2520"
      },
      "geometry": {
        "type": "Point",
        "coordinates": [
          -84.40653355557517,
          16.340106360809326
        ]
      }
    },
    {
      "type": "Feature",
      "properties": {
        "norad_id": 66909,
        "name": "SILVERSAT",
        "group": "last-30-days",
        "lat": 12.398163354317823,
        "lon": -81.01571896364385,
        "alt_km": 408.9625786051065,
        "timestamp": "2025-12-19T10:49:59.924280+00:00",
        "meta_object_name": "SILVERSAT",
        "meta_object_id": "1998-067XV",
        "meta_epoch": "2025-12-18T14:02:44.424960",
        "meta_mean_motion": 15.52406005,
        "meta_eccentricity": 0.00038673,
        "meta_inclination": 51.6304,
        "meta_ra_of_asc_node": 113.3244,
        "meta_arg_of_pericenter": 263.4051,
        "meta_mean_anomaly": 96.6498,
        "meta_ephemeris_type": 0,
        "meta_classification_type": "U",
        "meta_norad_cat_id": 66909,
        "meta_element_set_no": 999,
        "meta_rev_at_epoch": 252,
        "meta_bstar": 0.00095009624,
        "meta_mean_motion_dot": 0.00059069,
        "meta_mean_motion_ddot": 0,
        "tle_line1": "1 66909U 98067XV  25352.58523640  .00059069  00000+0  95010-3 0  9996",
        "tle_line2": "2 66909  51.6304 113.3244 0003867 263.4051  96.6498 15.52406005  2523"
      },
      "geometry": {
        "type": "Point",
        "coordinates": [
          -81.01571896364385,
          12.398163354317823
        ]
      }
    },
    {
      "type": "Feature",
      "properties": {
        "norad_id": 66910,
        "name": "1998-067XW",
        "group": "last-30-days",
        "lat": 4.633120792890498,
        "lon": -74.68712167009207,
        "alt_km": 408.49005815583314,
        "timestamp": "2025-12-19T10:49:59.924291+00:00",
        "meta_object_name": "1998-067XW",
        "meta_object_id": "1998-067XW",
        "meta_epoch": "2025-12-18T14:00:11.133216",
        "meta_mean_motion": 15.5243188,
        "meta_eccentricity": 0.00043225,
        "meta_inclination": 51.6304,
        "meta_ra_of_asc_node": 113.3129,
        "meta_arg_of_pericenter": 240.7939,
        "meta_mean_anomaly": 119.2619,
        "meta_ephemeris_type": 0,
        "meta_classification_type": "U",
        "meta_norad_cat_id": 66910,
        "meta_element_set_no": 999,
        "meta_rev_at_epoch": 252,
        "meta_bstar": 0.00081329162,
        "meta_mean_motion_dot": 0.00050492,
        "meta_mean_motion_ddot": 0,
        "tle_line1": "1 66910U 98067XW  25352.58346219  .00050492  00000+0  81329-3 0  9992",
        "tle_line2": "2 66910  51.6304 113.3129 0004322 240.7939 119.2619 15.52431880  2523"
      },
      "geometry": {
        "type": "Point",
        "coordinates": [
          -74.68712167009207,
          4.633120792890498
        ]
      }
    },
    {
      "type": "Feature",
      "properties": {
        "norad_id": 66911,
        "name": "1998-067XX",
        "group": "last-30-days",
        "lat": -4.910745619544629,
        "lon": -67.12757418244999,
        "alt_km": 408.3138347518152,
        "timestamp": "2025-12-19T10:49:59.924302+00:00",
        "meta_object_name": "1998-067XX",
        "meta_object_id": "1998-067XX",
        "meta_epoch": "2025-12-18T15:30:03.053088",
        "meta_mean_motion": 15.52835677,
        "meta_eccentricity": 0.00040366,
        "meta_inclination": 51.6301,
        "meta_ra_of_asc_node": 112.9797,
        "meta_arg_of_pericenter": 247.1524,
        "meta_mean_anomaly": 112.904,
        "meta_ephemeris_type": 0,
        "meta_classification_type": "U",
        "meta_norad_cat_id": 66911,
        "meta_element_set_no": 999,
        "meta_rev_at_epoch": 252,
        "meta_bstar": 0.0010034262,
        "meta_mean_motion_dot": 0.00063428,
        "meta_mean_motion_ddot": 0,
        "tle_line1": "1 66911U 98067XX  25352.64586867  .00063428  00000+0  10034-2 0  9992",
        "tle_line2": "2 66911  51.6301 112.9797 0004036 247.1524 112.9040 15.52835677  2520"
      },
      "geometry": {
        "type": "Point",
        "coordinates": [
          -67.12757418244999,
          -4.910745619544629
        ]
      }
    },
    {
      "type": "Feature",
      "properties": {
        "norad_id": 66912,
        "name": "1998-067XY",
        "group": "last-30-days",
        "lat": 30.445708838097215,
        "lon": -98.69050553973439,
        "alt_km": 409.03332134265656,
        "timestamp": "2025-12-19T10:49:59.924312+00:00",
        "meta_object_name": "1998-067XY",
        "meta_object_id": "1998-067XY",
        "meta_epoch": "2025-12-18T14:08:25.948608",
        "meta_mean_motion": 15.51695277,
        "meta_eccentricity": 0.00040785,
        "meta_inclination": 51.6305,
        "meta_ra_of_asc_node": 113.3494,
        "meta_arg_of_pericenter": 255.7838,
        "meta_mean_anomaly": 104.2699,
        "meta_ephemeris_type": 0,
        "meta_classification_type": "U",
        "meta_norad_cat_id": 66912,
        "meta_element_set_no": 999,
        "meta_rev_at_epoch": 251,
        "meta_bstar": 0.00071420837,
        "meta_mean_motion_dot": 0.00043076,
        "meta_mean_motion_ddot": 0,
        "tle_line1": "1 66912U 98067XY  25352.58918922  .00043076  00000+0  71421-3 0  9992",
        "tle_line2": "2 66912  51.6305 113.3494 0004078 255.7838 104.2699 15.51695277  2515"
      },
      "geometry": {
        "type": "Point",
        "coordinates": [
          -98.69050553973439,
          30.445708838097215
        ]
      }
    }
  ]
}